GLOBALSTAR M001         
1 25162U 98008A   24278.55241576 -.00000054  00000+0  32384-3 0  9991
2 25162  52.0065 357.2631 0001932  84.3887  20.4045 12.38194733212041
GLOBALSTAR M002         
1 25164U 98008C   24278.40227316  .00000000  00000+0  15040-2 0  9992
2 25164  51.9993 161.5411 0002209  49.5966 310.5046 11.61504605154342
GLOBALSTAR M003         
1 25165U 98008D   24278.41834013  .00000074  00000+0  17424-2 0  9991
2 25165  51.9926 156.8863 0008376 135.0629  35.6454 12.12041740202205
GLOBALSTAR M014         
1 25306U 98023A   24277.97283689 -.00000059  00000+0  34384-3 0  9991
2 25306  51.9821  91.2267 0000379 163.9443   9.4493 11.65472319161286
GLOBALSTAR M006         
1 25307U 98023B   24278.34577228 -.00000004  00000+0  14677-2 0  9991
2 25307  51.9914 133.1975 0004089  17.4418 153.1932 11.58167881187188
